NORAD_CAT_ID,OBJECT_NAME,OBJECT_TYPE,EPOCH,MEAN_MOTION,ECCENTRICITY,INCLINATION,RA_OF_ASC_NODE,ARG_OF_PERICENTER,MEAN_ANOMALY,BSTAR,MEAN_MOTION_DOT,MEAN_MOTION_DDOT,TLE_LINE0,TLE_LINE1,TLE_LINE2,SEMIMAJOR_AXIS,PERIOD,APOGEE,PERIGEE,DECAYED
52480.0,STARLINK-3839,PAYLOAD,2024-08-21 22:21:29,15.08845327,0.0001087,53.2161,74.4193,90.2827,269.8289,0.00020884,3.038e-05,0.0,0 STARLINK-3839,1 52480U 22049AF  24234.93159585  .00003038  00000-0  20884-3 0  9995,2 52480  53.2161  74.4193 0001087  90.2827 269.8289 15.08845327127154,6917.864,95.437,540.481,538.977,0.0
